<?xml version="1.0" encoding="UTF-8"?>
<kml xmlns="http://www.opengis.net/kml/2.2">
<Document> 
<Placemark>
	<name> Polo norte</name>
	<description> Comienzo del recorrido</description>
	<Point>
		<coordinates>-58.36269225,-34.65738198</coordinates>
	</Point>
</Placemark>
<Placemark>
	<name> Recorrido</name>
	<description> Recorrido hasta fabrica 10915</description>
		<LineString>
			<coordinates>
				-58.36269225,-34.65738198
				-58.36387949,-34.65810666
				-58.36499508,-34.65881941
				-58.36509637,-34.65888049
				-58.36731927,-34.65902817
				-58.36792994,-34.65886947
				-58.36806503,-34.65893504
				-58.36876314,-34.65960772
				-58.36947003,-34.66020924
				-58.37067769,-34.66104146
				-58.37230178,-34.661746
				-58.37310864,-34.66204818
				-58.3736642,-34.66225211
				-58.37378332,-34.66229567
				-58.3746082,-34.66294768
				-58.37497165,-34.66324159
				-58.37590514,-34.66245478
				-58.37618165,-34.66284967
				-58.37651749,-34.66336021
				-58.37658071,-34.66315797
				-58.37680114,-34.66283411
				-58.37698027,-34.66265842
				-58.378049,-34.66352343
				-58.37907893,-34.66437651
				-58.38018463,-34.66528932
				-58.38121812,-34.66613757
				-58.38237444,-34.66709307
				-58.38232851,-34.66716581
				-58.38371071,-34.66706763
				-58.38433626,-34.66702716
				-58.38466586,-34.66705407
				-58.38488805,-34.66710583
				-58.38500188,-34.66713222
				-58.38598347,-34.66741574
				-58.38784526,-34.66803936
				-58.38889834,-34.66896261
				-58.38924495,-34.66925604
				-58.38975285,-34.66968577
				-58.39063782,-34.67044104
				-58.39156098,-34.6696673
				-58.39212418,-34.67011353
				-58.39316602,-34.66935718
				-58.39428172,-34.66856139
				-58.39511666,-34.66797817
			</coordinates>
		</LineString>
</Placemark>
<Placemark>
	<name> Fabrica 10915</name>
	<description> Fin del recorrido</description>
	<Point>
		<coordinates>-58.39511666,-34.66797817</coordinates>
	</Point>
</Placemark>
</Document> 
</kml>
