<?xml version="1.0" encoding="UTF-8"?>
<kml xmlns="http://www.opengis.net/kml/2.2">
<Document> 
<Placemark>
	<name> Polo norte</name>
	<description> Comienzo del recorrido</description>
	<Point>
		<coordinates>-58.36269225,-34.65738198</coordinates>
	</Point>
</Placemark>
<Placemark>
	<name> Recorrido</name>
	<description> Recorrido hasta fabrica 14582</description>
		<LineString>
			<coordinates>
				-58.36269225,-34.65738198
				-58.36169167,-34.65829414
				-58.36161159,-34.65836816
				-58.36122105,-34.65922337
				-58.36082495,-34.65895828
				-58.36009141,-34.6597596
				-58.35953305,-34.66033616
				-58.35915132,-34.6607304
				-58.35871895,-34.6611978
				-58.35804726,-34.66188607
				-58.35739549,-34.66142841
				-58.35727618,-34.66150647
				-58.35688638,-34.6615403
				-58.35657304,-34.66157192
				-58.35625054,-34.66187857
				-58.35555292,-34.66271166
				-58.35482858,-34.66356091
				-58.35411205,-34.6643942
				-58.3535507,-34.66504651
				-58.35263507,-34.66608723
				-58.3518034,-34.66705028
				-58.35136275,-34.66750304
				-58.35091606,-34.66796723
				-58.35045716,-34.66845987
				-58.35006616,-34.66889242
				-58.34961369,-34.66935802
				-58.34917251,-34.66980636
				-58.34829556,-34.67073508
				-58.34742891,-34.67166062
				-58.34656209,-34.6725903
				-58.34570307,-34.67351754
				-58.34480873,-34.67442866
				-58.34425145,-34.67502398
				-58.34427091,-34.67540402
				-58.34429793,-34.67649541
				-58.34430938,-34.6768392
				-58.34324976,-34.67784609
				-58.34251705,-34.67852314
				-58.34202557,-34.67901863
				-58.34163095,-34.67929438
				-58.34148339,-34.67934208
				-58.34084011,-34.67967152
				-58.34049844,-34.67993407
				-58.34041401,-34.68010659
				-58.34027857,-34.6802024
				-58.33999083,-34.68025597
				-58.33916768,-34.68083093
				-58.33840911,-34.6813902
				-58.3377683,-34.68192203
				-58.33705366,-34.68254691
				-58.33630728,-34.6832008
				-58.33567092,-34.68377378
				-58.33526507,-34.68410681
				-58.3346139,-34.68458057
				-58.33364921,-34.68527823
				-58.33259292,-34.68607166
				-58.33152845,-34.68676498
				-58.33048835,-34.6875014
				-58.3299892,-34.6870679
				-58.32954525,-34.68742369
			</coordinates>
		</LineString>
</Placemark>
<Placemark>
	<name> Fabrica 14582</name>
	<description> Fin del recorrido</description>
	<Point>
		<coordinates>-58.32954525,-34.68742369</coordinates>
	</Point>
</Placemark>
</Document> 
</kml>
