<?xml version="1.0" encoding="UTF-8"?>
<kml xmlns="http://www.opengis.net/kml/2.2">
<Document> 
<Placemark>
	<name> Polo norte</name>
	<description> Comienzo del recorrido</description>
	<Point>
		<coordinates>-58.36269225,-34.65738198</coordinates>
	</Point>
</Placemark>
<Placemark>
	<name> Recorrido</name>
	<description> Recorrido hasta fabrica 2203</description>
		<LineString>
			<coordinates>
				-58.36269225,-34.65738198
				-58.36169167,-34.65829414
				-58.36161159,-34.65836816
				-58.36122105,-34.65922337
				-58.36221762,-34.65993234
				-58.36121093,-34.66089993
				-58.35995406,-34.66208582
				-58.35924989,-34.66277004
				-58.35852159,-34.66347391
				-58.3579257,-34.66404069
				-58.3579619,-34.66422559
				-58.35812642,-34.66442348
				-58.3595271,-34.66532941
				-58.3583063,-34.6659495
				-58.35760969,-34.66628368
				-58.35721565,-34.66650727
				-58.35649843,-34.66743229
				-58.3559427,-34.66810799
				-58.35552502,-34.66863021
				-58.35511877,-34.66911038
				-58.35472693,-34.66956369
				-58.35440617,-34.66996617
				-58.35411055,-34.67029064
				-58.35373721,-34.670735
				-58.35326006,-34.67124543
				-58.35253745,-34.67199871
				-58.35170824,-34.6728822
				-58.35118921,-34.6734233
				-58.35089674,-34.67372762
				-58.34950555,-34.67517926
				-58.34812031,-34.67691991
				-58.34795708,-34.67712523
				-58.34688264,-34.6784141
				-58.34642078,-34.67898503
				-58.34599545,-34.67958061
				-58.34530817,-34.68068368
				-58.34453851,-34.68195203
				-58.34401404,-34.6826359
				-58.34336215,-34.68339231
				-58.34250844,-34.68435301
				-58.34162202,-34.68541858
				-58.34112397,-34.68599728
				-58.34058584,-34.68654061
				-58.33957913,-34.68740668
				-58.33804917,-34.68871346
				-58.33736331,-34.68926472
				-58.33594478,-34.69039
				-58.3368322,-34.69117747
				-58.33614008,-34.69174204
				-58.33522154,-34.69248979
				-58.3343309,-34.69322244
				-58.33340749,-34.69397474
				-58.33249848,-34.69470722
				-58.33169081,-34.69534057
				-58.33074853,-34.69606294
				-58.32984189,-34.69677599
				-58.32893523,-34.69748858
				-58.32963862,-34.69813518
				-58.32944538,-34.69815577
				-58.32903675,-34.69853254
				-58.32847104,-34.69900697
				-58.32766669,-34.69970896
				-58.3269375,-34.70032528
				-58.32617273,-34.70099131
				-58.32517835,-34.70182232
				-58.32417326,-34.70265407
				-58.32308006,-34.70359668
				-58.32222014,-34.70427012
				-58.32167846,-34.70470151
				-58.32114279,-34.70513401
				-58.32052729,-34.70564176
				-58.31988399,-34.70614539
				-58.31914623,-34.70675869
				-58.31842432,-34.7073124
				-58.31775749,-34.70784837
				-58.31696101,-34.70847907
				-58.31617646,-34.70911234
				-58.31549055,-34.70965247
				-58.3159841,-34.71018347
				-58.31642077,-34.71063141
				-58.31694127,-34.71118114
				-58.31737023,-34.71160364
			</coordinates>
		</LineString>
</Placemark>
<Placemark>
	<name> Fabrica 2203</name>
	<description> Fin del recorrido</description>
	<Point>
		<coordinates>-58.31737023,-34.71160364</coordinates>
	</Point>
</Placemark>
</Document> 
</kml>
