<?xml version="1.0" encoding="UTF-8"?>
<kml xmlns="http://www.opengis.net/kml/2.2">
<Document> 
<Placemark>
	<name> Polo norte</name>
	<description> Comienzo del recorrido</description>
	<Point>
		<coordinates>-58.36269225,-34.65738198</coordinates>
	</Point>
</Placemark>
<Placemark>
	<name> Recorrido</name>
	<description> Recorrido hasta fabrica 2580</description>
		<LineString>
			<coordinates>
				-58.36269225,-34.65738198
				-58.36387949,-34.65810666
				-58.36499508,-34.65881941
				-58.36509637,-34.65888049
				-58.36731927,-34.65902817
				-58.36792994,-34.65886947
				-58.36806503,-34.65893504
				-58.36876314,-34.65960772
				-58.36947003,-34.66020924
				-58.37067769,-34.66104146
				-58.37230178,-34.661746
				-58.37310864,-34.66204818
				-58.3736642,-34.66225211
				-58.37378332,-34.66229567
				-58.3746082,-34.66294768
				-58.37497165,-34.66324159
				-58.37590514,-34.66245478
				-58.37618165,-34.66284967
				-58.37651749,-34.66336021
				-58.37713047,-34.66425048
				-58.37814053,-34.66572218
				-58.37869585,-34.66655512
				-58.37902633,-34.66704389
				-58.37938177,-34.66758242
				-58.37983803,-34.66824523
				-58.38024106,-34.66884301
				-58.38064235,-34.66976307
				-58.38086799,-34.6703779
				-58.38108697,-34.6711104
			</coordinates>
		</LineString>
</Placemark>
<Placemark>
	<name> Fabrica 2580</name>
	<description> Fin del recorrido</description>
	<Point>
		<coordinates>-58.38108697,-34.6711104</coordinates>
	</Point>
</Placemark>
</Document> 
</kml>
