<?xml version="1.0" encoding="UTF-8"?>
<kml xmlns="http://www.opengis.net/kml/2.2">
<Document> 
<Placemark>
	<name> Polo norte</name>
	<description> Comienzo del recorrido</description>
	<Point>
		<coordinates>-58.36269225,-34.65738198</coordinates>
	</Point>
</Placemark>
<Placemark>
	<name> Recorrido</name>
	<description> Recorrido hasta fabrica 35128</description>
		<LineString>
			<coordinates>
				-58.36269225,-34.65738198
				-58.36169167,-34.65829414
				-58.36161159,-34.65836816
				-58.36122105,-34.65922337
				-58.36221762,-34.65993234
				-58.36121093,-34.66089993
				-58.35995406,-34.66208582
				-58.35924989,-34.66277004
				-58.35852159,-34.66347391
				-58.3579257,-34.66404069
				-58.3579619,-34.66422559
				-58.35812642,-34.66442348
				-58.3595271,-34.66532941
				-58.3583063,-34.6659495
				-58.35760969,-34.66628368
				-58.35721565,-34.66650727
				-58.35649843,-34.66743229
				-58.3559427,-34.66810799
				-58.35552502,-34.66863021
				-58.35511877,-34.66911038
				-58.35472693,-34.66956369
				-58.35440617,-34.66996617
				-58.35411055,-34.67029064
				-58.35373721,-34.670735
				-58.35326006,-34.67124543
				-58.35253745,-34.67199871
				-58.35170824,-34.6728822
				-58.35118921,-34.6734233
				-58.35089674,-34.67372762
				-58.34950555,-34.67517926
				-58.34812031,-34.67691991
				-58.34795708,-34.67712523
				-58.34688264,-34.6784141
				-58.34642078,-34.67898503
				-58.34599545,-34.67958061
				-58.34530817,-34.68068368
				-58.34453851,-34.68195203
				-58.34401404,-34.6826359
				-58.34336215,-34.68339231
				-58.34250844,-34.68435301
				-58.34162202,-34.68541858
				-58.34112397,-34.68599728
				-58.34058584,-34.68654061
				-58.33957913,-34.68740668
				-58.33804917,-34.68871346
				-58.33736331,-34.68926472
				-58.33907507,-34.69075176
				-58.33839363,-34.69132678
				-58.33771215,-34.69190721
				-58.33700933,-34.69247091
				-58.33678823,-34.69265927
				-58.33609643,-34.69320986
				-58.33589831,-34.6933884
				-58.33518349,-34.69395448
				-58.3342624,-34.69470153
				-58.33335232,-34.69544278
				-58.33251785,-34.69608616
				-58.33301212,-34.69650339
				-58.33210692,-34.69723708
				-58.33117947,-34.69795316
				-58.33027455,-34.69865862
				-58.33058694,-34.69894736
				-58.33008107,-34.69942853
				-58.32954608,-34.69986439
				-58.32868713,-34.70059287
				-58.32970844,-34.70148911
				-58.33003979,-34.7017817
				-58.32976464,-34.70278388
				-58.32964321,-34.70331478
				-58.32946114,-34.70381577
				-58.3290271,-34.70504258
				-58.32896734,-34.70508813
				-58.32792152,-34.70586499
				-58.32646637,-34.70646632
				-58.3256326,-34.70717746
				-58.32509025,-34.7076224
				-58.32457638,-34.70805206
			</coordinates>
		</LineString>
</Placemark>
<Placemark>
	<name> Fabrica 35128</name>
	<description> Fin del recorrido</description>
	<Point>
		<coordinates>-58.32457638,-34.70805206</coordinates>
	</Point>
</Placemark>
</Document> 
</kml>
