<?xml version="1.0" encoding="UTF-8"?>
<kml xmlns="http://www.opengis.net/kml/2.2">
<Document> 
<Placemark>
	<name> Polo norte</name>
	<description> Comienzo del recorrido</description>
	<Point>
		<coordinates>-58.36269225,-34.65738198</coordinates>
	</Point>
</Placemark>
<Placemark>
	<name> Recorrido</name>
	<description> Recorrido hasta fabrica 48084</description>
		<LineString>
			<coordinates>
				-58.36269225,-34.65738198
				-58.36161455,-34.65670151
				-58.36072411,-34.65616078
				-58.36041484,-34.65596568
				-58.35977625,-34.65556433
				-58.35919141,-34.65519926
				-58.35870613,-34.65489078
				-58.35792002,-34.65440153
				-58.3572623,-34.65525493
				-58.35666079,-34.65605584
				-58.35543472,-34.65519257
				-58.35418162,-34.65432923
				-58.35405312,-34.6542449
				-58.35369028,-34.65401584
				-58.35299507,-34.65402122
				-58.35183585,-34.65405851
				-58.35146845,-34.65406583
				-58.35070474,-34.65407961
				-58.35066958,-34.65292816
				-58.34996611,-34.65294236
				-58.34925436,-34.65295051
				-58.34923165,-34.65183868
				-58.34914297,-34.65177988
				-58.34896261,-34.6517808
				-58.34780058,-34.65180438
				-58.34638836,-34.65182864
				-58.34496772,-34.6518592
				-58.34355251,-34.65188797
				-58.34212065,-34.65190554
				-58.34060748,-34.65193598
				-58.34055109,-34.65078557
			</coordinates>
		</LineString>
</Placemark>
<Placemark>
	<name> Fabrica 48084</name>
	<description> Fin del recorrido</description>
	<Point>
		<coordinates>-58.34055109,-34.65078557</coordinates>
	</Point>
</Placemark>
</Document> 
</kml>
