<?xml version="1.0" encoding="UTF-8"?>
<kml xmlns="http://www.opengis.net/kml/2.2">
<Document> 
<Placemark>
	<name> Polo norte</name>
	<description> Comienzo del recorrido</description>
	<Point>
		<coordinates>-58.36269225,-34.65738198</coordinates>
	</Point>
</Placemark>
<Placemark>
	<name> Recorrido</name>
	<description> Recorrido hasta fabrica 8915</description>
		<LineString>
			<coordinates>
				-58.36269225,-34.65738198
				-58.36169167,-34.65829414
				-58.36161159,-34.65836816
				-58.36122105,-34.65922337
				-58.36221762,-34.65993234
				-58.3633586,-34.66075574
				-58.36431039,-34.6614137
				-58.36534718,-34.66212977
				-58.36590235,-34.6625368
				-58.36710464,-34.66336759
				-58.36649665,-34.66433021
				-58.36592023,-34.66518878
				-58.36552853,-34.66578604
				-58.36542623,-34.66594327
				-58.36486956,-34.66680927
				-58.36440126,-34.66754138
				-58.36431345,-34.66767076
				-58.36421356,-34.66780876
				-58.36389212,-34.6682532
				-58.36314335,-34.6693667
				-58.36268117,-34.67004806
				-58.36114478,-34.67232074
				-58.36155185,-34.67272548
				-58.36176547,-34.67289369
				-58.36154951,-34.67301621
				-58.36172648,-34.67305229
				-58.36201,-34.67331034
				-58.36228357,-34.67356012
				-58.36236035,-34.67363014
				-58.36280582,-34.67402651
				-58.36294294,-34.67414797
				-58.36364755,-34.67477236
				-58.36474537,-34.67574527
				-58.36444071,-34.67779969
				-58.36440909,-34.67801429
				-58.36437176,-34.67826754
				-58.36418548,-34.6795339
				-58.36382853,-34.68188899
				-58.36376125,-34.68232617
				-58.36327219,-34.68272956
				-58.36427957,-34.68356661
				-58.36527967,-34.68441734
				-58.36625787,-34.68525641
				-58.36701039,-34.68594544
			</coordinates>
		</LineString>
</Placemark>
<Placemark>
	<name> Fabrica 8915</name>
	<description> Fin del recorrido</description>
	<Point>
		<coordinates>-58.36701039,-34.68594544</coordinates>
	</Point>
</Placemark>
</Document> 
</kml>
